GLOBALSTAR M045         
1 25676U 99019A   24335.50536557 -.00000057  00000+0  32506-3 0  9998
2 25676  51.9940 151.5510 0001256 114.6234 292.3400 12.27052606169006
GLOBALSTAR M019         
1 25677U 99019B   24335.59789409 -.00000110  00000+0 -20760-3 0  9994
2 25677  51.9882 267.6784 0000895 325.5577 206.8575 12.13865980161024
GLOBALSTAR M044         
1 25678U 99019C   24335.34572715 -.00000086  00000+0 -35877-4 0  9996
2 25678  51.9947 194.8656 0007272  27.2263 143.7238 11.90244522147644
GLOBALSTAR M042         
1 25679U 99019D   24335.50294394 -.00000077  00000+0  14526-3 0  9995
2 25679  52.0013 251.8413 0001996 252.6807 278.7096 12.22073885160960
GLOBALSTAR M025         
1 25770U 99031A   24335.58388367 -.00000038  00000+0  89946-3 0  9998
2 25770  51.9819 259.3503 0001213 136.0550  34.8682 11.22557235459406
GLOBALSTAR M049         
1 25771U 99031B   24335.53017897 -.00000147  00000+0 -28392-2 0  9990
2 25771  51.9883 284.2538 0003981  41.7649 318.3451 11.12113571 95329
GLOBALSTAR M047         
1 25772U 99031C   24335.28028449 -.00000063  00000+0  19126-3 0  9990
2 25772  51.9848 300.7937 0016188 283.0350  76.8648 11.31925198448582
GLOBALSTAR M052         
1 25773U 99031D   24335.59793847 -.00000098  00000+0 -10858-2 0  9997
2 25773  51.9900  35.5678 0002774 193.9465 316.3011 11.15055370456357
